<?xml version="1.0" encoding="UTF-8"?>
<ndm xmlns:xsi="http://www.w3.org/2001/XMLSchema-instance" xsi:noNamespaceSchemaLocation="https://sanaregistry.org/r/ndmxml_unqualified/ndmxml-2.0.0-master-2.0.xsd">
<omm id="CCSDS_OMM_VERS" version="2.0">
<header><CREATION_DATE/><ORIGINATOR/></header><body><segment><metadata><OBJECT_NAME>ORBCOMM FM05</OBJECT_NAME><OBJECT_ID>1997-084F</OBJECT_ID><CENTER_NAME>EARTH</CENTER_NAME><REF_FRAME>TEME</REF_FRAME><TIME_SYSTEM>UTC</TIME_SYSTEM><MEAN_ELEMENT_THEORY>SGP4</MEAN_ELEMENT_THEORY></metadata><data><meanElements><EPOCH>2024-07-18T08:37:47.093376</EPOCH><MEAN_MOTION>14.43083383</MEAN_MOTION><ECCENTRICITY>.0004248</ECCENTRICITY><INCLINATION>45.0132</INCLINATION><RA_OF_ASC_NODE>167.7162</RA_OF_ASC_NODE><ARG_OF_PERICENTER>336.9013</ARG_OF_PERICENTER><MEAN_ANOMALY>23.1646</MEAN_ANOMALY></meanElements><tleParameters><EPHEMERIS_TYPE>0</EPHEMERIS_TYPE><CLASSIFICATION_TYPE>U</CLASSIFICATION_TYPE><NORAD_CAT_ID>25117</NORAD_CAT_ID><ELEMENT_SET_NO>999</ELEMENT_SET_NO><REV_AT_EPOCH>39233</REV_AT_EPOCH><BSTAR>.11995E-2</BSTAR><MEAN_MOTION_DOT>.392E-4</MEAN_MOTION_DOT><MEAN_MOTION_DDOT>0</MEAN_MOTION_DDOT></tleParameters></data></segment></body></omm>
<omm id="CCSDS_OMM_VERS" version="2.0">
<header><CREATION_DATE/><ORIGINATOR/></header><body><segment><metadata><OBJECT_NAME>ORBCOMM FM06</OBJECT_NAME><OBJECT_ID>1997-084G</OBJECT_ID><CENTER_NAME>EARTH</CENTER_NAME><REF_FRAME>TEME</REF_FRAME><TIME_SYSTEM>UTC</TIME_SYSTEM><MEAN_ELEMENT_THEORY>SGP4</MEAN_ELEMENT_THEORY></metadata><data><meanElements><EPOCH>2024-07-18T14:59:53.144160</EPOCH><MEAN_MOTION>14.43174435</MEAN_MOTION><ECCENTRICITY>.0003394</ECCENTRICITY><INCLINATION>45.0125</INCLINATION><RA_OF_ASC_NODE>166.5761</RA_OF_ASC_NODE><ARG_OF_PERICENTER>342.6435</ARG_OF_PERICENTER><MEAN_ANOMALY>187.4081</MEAN_ANOMALY></meanElements><tleParameters><EPHEMERIS_TYPE>0</EPHEMERIS_TYPE><CLASSIFICATION_TYPE>U</CLASSIFICATION_TYPE><NORAD_CAT_ID>25118</NORAD_CAT_ID><ELEMENT_SET_NO>999</ELEMENT_SET_NO><REV_AT_EPOCH>39328</REV_AT_EPOCH><BSTAR>.15076E-2</BSTAR><MEAN_MOTION_DOT>.4974E-4</MEAN_MOTION_DOT><MEAN_MOTION_DDOT>0</MEAN_MOTION_DDOT></tleParameters></data></segment></body></omm>
<omm id="CCSDS_OMM_VERS" version="2.0">
<header><CREATION_DATE/><ORIGINATOR/></header><body><segment><metadata><OBJECT_NAME>ORBCOMM FM07</OBJECT_NAME><OBJECT_ID>1997-084H</OBJECT_ID><CENTER_NAME>EARTH</CENTER_NAME><REF_FRAME>TEME</REF_FRAME><TIME_SYSTEM>UTC</TIME_SYSTEM><MEAN_ELEMENT_THEORY>SGP4</MEAN_ELEMENT_THEORY></metadata><data><meanElements><EPOCH>2024-07-18T14:06:30.887136</EPOCH><MEAN_MOTION>14.43071998</MEAN_MOTION><ECCENTRICITY>.0004993</ECCENTRICITY><INCLINATION>45.0121</INCLINATION><RA_OF_ASC_NODE>167.3355</RA_OF_ASC_NODE><ARG_OF_PERICENTER>332.4481</ARG_OF_PERICENTER><MEAN_ANOMALY>27.6105</MEAN_ANOMALY></meanElements><tleParameters><EPHEMERIS_TYPE>0</EPHEMERIS_TYPE><CLASSIFICATION_TYPE>U</CLASSIFICATION_TYPE><NORAD_CAT_ID>25119</NORAD_CAT_ID><ELEMENT_SET_NO>999</ELEMENT_SET_NO><REV_AT_EPOCH>39327</REV_AT_EPOCH><BSTAR>.13007E-2</BSTAR><MEAN_MOTION_DOT>.4262E-4</MEAN_MOTION_DOT><MEAN_MOTION_DDOT>0</MEAN_MOTION_DDOT></tleParameters></data></segment></body></omm>
<omm id="CCSDS_OMM_VERS" version="2.0">
<header><CREATION_DATE/><ORIGINATOR/></header><body><segment><metadata><OBJECT_NAME>ORBCOMM FM03</OBJECT_NAME><OBJECT_ID>1998-007B</OBJECT_ID><CENTER_NAME>EARTH</CENTER_NAME><REF_FRAME>TEME</REF_FRAME><TIME_SYSTEM>UTC</TIME_SYSTEM><MEAN_ELEMENT_THEORY>SGP4</MEAN_ELEMENT_THEORY></metadata><data><meanElements><EPOCH>2024-07-18T14:12:45.242784</EPOCH><MEAN_MOTION>14.32447320</MEAN_MOTION><ECCENTRICITY>.0045471</ECCENTRICITY><INCLINATION>107.9693</INCLINATION><RA_OF_ASC_NODE>171.1787</RA_OF_ASC_NODE><ARG_OF_PERICENTER>111.5318</ARG_OF_PERICENTER><MEAN_ANOMALY>249.0676</MEAN_ANOMALY></meanElements><tleParameters><EPHEMERIS_TYPE>0</EPHEMERIS_TYPE><CLASSIFICATION_TYPE>U</CLASSIFICATION_TYPE><NORAD_CAT_ID>25158</NORAD_CAT_ID><ELEMENT_SET_NO>999</ELEMENT_SET_NO><REV_AT_EPOCH>37623</REV_AT_EPOCH><BSTAR>.12197E-2</BSTAR><MEAN_MOTION_DOT>.3216E-4</MEAN_MOTION_DOT><MEAN_MOTION_DDOT>0</MEAN_MOTION_DDOT></tleParameters></data></segment></body></omm>
<omm id="CCSDS_OMM_VERS" version="2.0">
<header><CREATION_DATE/><ORIGINATOR/></header><body><segment><metadata><OBJECT_NAME>ORBCOMM FM04</OBJECT_NAME><OBJECT_ID>1998-007C</OBJECT_ID><CENTER_NAME>EARTH</CENTER_NAME><REF_FRAME>TEME</REF_FRAME><TIME_SYSTEM>UTC</TIME_SYSTEM><MEAN_ELEMENT_THEORY>SGP4</MEAN_ELEMENT_THEORY></metadata><data><meanElements><EPOCH>2024-07-18T13:37:44.738688</EPOCH><MEAN_MOTION>14.32721193</MEAN_MOTION><ECCENTRICITY>.0041099</ECCENTRICITY><INCLINATION>107.9680</INCLINATION><RA_OF_ASC_NODE>174.1143</RA_OF_ASC_NODE><ARG_OF_PERICENTER>109.2693</ARG_OF_PERICENTER><MEAN_ANOMALY>251.2898</MEAN_ANOMALY></meanElements><tleParameters><EPHEMERIS_TYPE>0</EPHEMERIS_TYPE><CLASSIFICATION_TYPE>U</CLASSIFICATION_TYPE><NORAD_CAT_ID>25159</NORAD_CAT_ID><ELEMENT_SET_NO>999</ELEMENT_SET_NO><REV_AT_EPOCH>37640</REV_AT_EPOCH><BSTAR>.12546E-2</BSTAR><MEAN_MOTION_DOT>.3324E-4</MEAN_MOTION_DOT><MEAN_MOTION_DDOT>0</MEAN_MOTION_DDOT></tleParameters></data></segment></body></omm>
<omm id="CCSDS_OMM_VERS" version="2.0">
<header><CREATION_DATE/><ORIGINATOR/></header><body><segment><metadata><OBJECT_NAME>ORBCOMM FM17</OBJECT_NAME><OBJECT_ID>1998-046A</OBJECT_ID><CENTER_NAME>EARTH</CENTER_NAME><REF_FRAME>TEME</REF_FRAME><TIME_SYSTEM>UTC</TIME_SYSTEM><MEAN_ELEMENT_THEORY>SGP4</MEAN_ELEMENT_THEORY></metadata><data><meanElements><EPOCH>2024-07-18T13:37:02.604864</EPOCH><MEAN_MOTION>14.33387444</MEAN_MOTION><ECCENTRICITY>.0001434</ECCENTRICITY><INCLINATION>44.9954</INCLINATION><RA_OF_ASC_NODE>30.2544</RA_OF_ASC_NODE><ARG_OF_PERICENTER>341.5899</ARG_OF_PERICENTER><MEAN_ANOMALY>18.4895</MEAN_ANOMALY></meanElements><tleParameters><EPHEMERIS_TYPE>0</EPHEMERIS_TYPE><CLASSIFICATION_TYPE>U</CLASSIFICATION_TYPE><NORAD_CAT_ID>25413</NORAD_CAT_ID><ELEMENT_SET_NO>999</ELEMENT_SET_NO><REV_AT_EPOCH>35527</REV_AT_EPOCH><BSTAR>.9674E-3</BSTAR><MEAN_MOTION_DOT>.2552E-4</MEAN_MOTION_DOT><MEAN_MOTION_DDOT>0</MEAN_MOTION_DDOT></tleParameters></data></segment></body></omm>
<omm id="CCSDS_OMM_VERS" version="2.0">
<header><CREATION_DATE/><ORIGINATOR/></header><body><segment><metadata><OBJECT_NAME>ORBCOMM FM18</OBJECT_NAME><OBJECT_ID>1998-046B</OBJECT_ID><CENTER_NAME>EARTH</CENTER_NAME><REF_FRAME>TEME</REF_FRAME><TIME_SYSTEM>UTC</TIME_SYSTEM><MEAN_ELEMENT_THEORY>SGP4</MEAN_ELEMENT_THEORY></metadata><data><meanElements><EPOCH>2024-07-18T15:15:00.864288</EPOCH><MEAN_MOTION>14.36237795</MEAN_MOTION><ECCENTRICITY>.0002067</ECCENTRICITY><INCLINATION>44.9947</INCLINATION><RA_OF_ASC_NODE>315.5374</RA_OF_ASC_NODE><ARG_OF_PERICENTER>33.0563</ARG_OF_PERICENTER><MEAN_ANOMALY>327.0413</MEAN_ANOMALY></meanElements><tleParameters><EPHEMERIS_TYPE>0</EPHEMERIS_TYPE><CLASSIFICATION_TYPE>U</CLASSIFICATION_TYPE><NORAD_CAT_ID>25414</NORAD_CAT_ID><ELEMENT_SET_NO>999</ELEMENT_SET_NO><REV_AT_EPOCH>35625</REV_AT_EPOCH><BSTAR>.11451E-2</BSTAR><MEAN_MOTION_DOT>.3233E-4</MEAN_MOTION_DOT><MEAN_MOTION_DDOT>0</MEAN_MOTION_DDOT></tleParameters></data></segment></body></omm>
<omm id="CCSDS_OMM_VERS" version="2.0">
<header><CREATION_DATE/><ORIGINATOR/></header><body><segment><metadata><OBJECT_NAME>ORBCOMM FM19</OBJECT_NAME><OBJECT_ID>1998-046C</OBJECT_ID><CENTER_NAME>EARTH</CENTER_NAME><REF_FRAME>TEME</REF_FRAME><TIME_SYSTEM>UTC</TIME_SYSTEM><MEAN_ELEMENT_THEORY>SGP4</MEAN_ELEMENT_THEORY></metadata><data><meanElements><EPOCH>2024-07-18T14:42:06.731424</EPOCH><MEAN_MOTION>14.36071200</MEAN_MOTION><ECCENTRICITY>.0001105</ECCENTRICITY><INCLINATION>44.9957</INCLINATION><RA_OF_ASC_NODE>317.1504</RA_OF_ASC_NODE><ARG_OF_PERICENTER>0.6448</ARG_OF_PERICENTER><MEAN_ANOMALY>15.1428</MEAN_ANOMALY></meanElements><tleParameters><EPHEMERIS_TYPE>0</EPHEMERIS_TYPE><CLASSIFICATION_TYPE>U</CLASSIFICATION_TYPE><NORAD_CAT_ID>25415</NORAD_CAT_ID><ELEMENT_SET_NO>999</ELEMENT_SET_NO><REV_AT_EPOCH>35621</REV_AT_EPOCH><BSTAR>.11737E-2</BSTAR><MEAN_MOTION_DOT>.3306E-4</MEAN_MOTION_DOT><MEAN_MOTION_DDOT>0</MEAN_MOTION_DDOT></tleParameters></data></segment></body></omm>

</ndm>
